[
    {
        "Altitude(m)": 610399.5462329327,
        "Argument of Periapsis(deg)": 0.0,
        "Eccentricity": 0.0,
        "Inclination(deg)": 60.0,
        "Latitude(deg)": 52.11138293256403,
        "Longitude(deg)": 17.58415950662596,
        "Mean Anomaly(deg)": 65.45450000000001,
        "RAAN(deg)": 70.0,
        "Satellite Name": "Test1 312",
        "Satellite Number": 312,
        "Semi-Major Axis(m)": 6980739.136638005,
        "Time(s)": 0
    },
    {
        "Altitude(m)": 610481.6978251826,
        "Argument of Periapsis(deg)": 0.00010418945913296404,
        "Eccentricity": 0.0,
        "Inclination(deg)": 60.0,
        "Latitude(deg)": 52.470986739553204,
        "Longitude(deg)": 18.36629467905921,
        "Mean Anomaly(deg)": 66.07460614546183,
        "RAAN(deg)": 69.99957995086027,
        "Satellite Name": "Test1 312",
        "Satellite Number": 312,
        "Semi-Major Axis(m)": 6980739.136638005,
        "Time(s)": 10
    }
]